Name,Neighborhood,Address,Latitude,Longitude,Cuisine Type,Service Style,Meal Focus,Description,Vegan,Gluten‑Free,Dairy‑Free
A. Schwab Trading Company,Beale Street,"163 Beale St, Memphis, TN 38103",35.13987356,-90.05261211,"Snacks, Sweets, Specialty Store","Casual, Retail","All-day, Snack","A. Schwab Trading Company is a historic Beale Street general store known for its nostalgic charm. Visitors can explore Memphis souvenirs, old-fashioned sodas, quirky gifts, and local treats all in one vintage setting. While the focus here isn’t on dining, you’ll find classic candies and sodas to enjoy as a nostalgic snack.",0,0,0
Alcenia’s Southern Style Cuisine,Downtown Memphis,"317 N Main St, Memphis, TN 38103",35.15374124,-90.04971435,"Southern, Soul Food","Casual, Family-style","Lunch, Dinner","Alcenia’s serves heartwarming, made-from-scratch Southern soul food in a brightly colored, welcoming space downtown. Specialties include fried chicken, catfish, salmon croquettes, cha‑cha cabbage, sweet potato cobbler, meatloaf, and hot-water cornbread. Owner B.J. personalizes service with Southern hospitality, and everything is cooked fresh daily. The nostalgic setting and generous portions make Alcenia’s a beloved community staple.",0,0,0
Alfred's on Beale,Beale Street,"197 Beale St, Memphis, TN 38103",35.13963637,-90.05160706,"Southern, Bar & Grill","Casual, Bar","Lunch, Dinner","Alfred’s on Beale offers an energetic multi-level patio and Beale Street people-watching in a live music bar setting. The menu spans gumbo, nachos, torta-style sandwiches, fried green tomatoes, catfish, pulled pork, and baked pasta, along with salads and a rotating “blue‑plate” special. Cocktails, beers, and lively nightfall crowds blend with old-school southern hospitality for a classic Memphis street experience.",0,0,0
Amelia Gene's,Downtown Memphis,"255 S Front St, Memphis, TN 38103",35.1399469,-90.0571894,"Global, Upscale, Fine Dining",Upscale,Dinner,"Amelia Gene’s transforms a historic warehouse into an elegant dining destination driven by seasonal, globally inspired dishes. Expect delicate bites like saffron bucatini, tempura squash blossoms, oyster plates, and a rotating tasting menu with a curated cheese cart and thoughtful wine service. The atmosphere blends refined hospitality with artistic presentation, ideal for intimate dinners or upscale evenings in downtown Memphis.",0,0,0
B.B. King’s Blues Club,Beale Street,"143 Beale St, Memphis, TN 38103",35.13985558,-90.05350036,"Southern, Bar & Grill, Live Music","Casual, Bar","Lunch, Dinner","B.B. King’s Blues Club delivers classic Southern fare and live blues music nightly on iconic Beale Street. The menu features ribs, catfish, gumbo, and Southern-inspired appetizers, with select gluten-free options clearly marked. The vibrant, music-filled atmosphere makes it a popular spot for visitors seeking Memphis flavor and sound. While not an allergen-free kitchen, the labeled options support guests with gluten sensitivities.",0,1,0
Bar DKDC,Midtown,"964 Cooper St, Memphis, TN 38104",35.11955311,-89.99073743,"Global, Street Food","Casual, Bar","Lunch, Dinner","Nestled in Cooper‑Young, Bar DKDC is a funky, artsy spot offering ever‑changing global street food inspired by Mexico, the Caribbean, Spain, and beyond. Diners enjoy small plates like jerk chicken tacos on corn tortillas, Mediterranean sliders, and Caribbean‑spiced tacos in an intimate, loft‑like space adorned with international art. Excellent cocktails, soul music nights, and vintage décor—plus a vintage photo booth—add to its inventive, spirited vibe.",0,1,0
Bar Ware,Downtown Memphis,"276 S Front St, Memphis, TN 38103",35.13919647,-90.0573098,"Bar, Casual","Modern, Casual","Lunch, Dinner","Bar Ware offers a modern, casual downtown atmosphere with a focus on elevated bar fare and creative cocktails. Shareable plates, sandwiches, and comforting small bites make it ideal for an after-work stop or casual dinner. Vegetarian options and some lighter items are available, so guests can enjoy an approachable yet thoughtful dining experience while mingling over drinks.",0,0,0
Belle Tavern,Downtown Memphis,"117 Barboro Alley, Memphis, TN 38103",35.14316455,-90.05298135,Bar,"Cozy, Casual","Drinks, Late-night","Belle Tavern is a tucked-away whiskey-focused alley bar known for its skilled cocktails, comfortable seating, and low-lit vibe. Although small bites and sliders are available from its sister steakhouse, the focus is on the drinks program—from bourbon flights to seasonal specials. It’s a favorite after-hours spot where mixology meets cozy conversation in a discreet, stylish setting.",0,0,0
Birdie’s,Downtown Memphis,"493 S Main St STE 101, Memphis, TN 38103",35.13401049,-90.05966026,"Southern, Bar & Grill","Casual, Bar","Lunch, Dinner","Birdie’s offers an elevated bar and grill experience with a focus on Southern-inspired small plates and creative cocktails, all served in a chic, stylish setting. Its refined yet approachable menu includes shareables and inventive twists on familiar dishes. Vegetarian-friendly options and lighter selections are available, making it easy to tailor your meal while soaking in the lively atmosphere.",0,0,0
Blues City Cafe,Beale Street,"138 Beale St, Memphis, TN 38103",35.14027935,-90.05321517,"Southern, Soul Food","Casual, Bar","Lunch, Dinner","Blues City Cafe is a beloved Beale Street staple serving classic Southern and soul food dishes like ribs, catfish, and gumbo in a casual, music-filled atmosphere. Its lively, welcoming vibe makes it a must-visit for visitors looking to soak up Memphis’s energy. While the menu leans hearty, guests will find salads and veggie sides that can accommodate lighter or vegetarian preferences.",0,0,0
Brooks Shaw and Son's Old Country Store,Regional,"56 Casey Jones Ln A, Jackson, TN 38305",35.66011338,-88.85582961,"Southern, Soul Food","Casual, Family-style","Lunch, Dinner","Brooks Shaw and Son’s Old Country Store, located in Jackson but beloved by Memphis visitors, offers a nostalgic dining experience with a buffet of classic Southern comfort dishes like fried chicken, turnip greens, and homemade pies. The atmosphere feels like stepping back in time. While rich Southern fare dominates, guests can enjoy vegetable-forward sides and salad options for a more balanced meal.",0,0,0
Ching’s Hot Wings,East Memphis,"1264 Getwell Rd, Memphis, TN 38111",35.09748552,-89.93028853,"Wings, Fast Casual","Casual, Takeout","Lunch, Dinner","Ching’s Hot Wings is a local favorite for crispy, saucy wings offered in a variety of bold flavors, from classic mild to extra hot. The unpretentious, no-frills vibe makes it popular for takeout or a quick meal with friends. While wings are the focus, fries and veggie sides are available, providing options for those who want lighter or meatless accompaniments.",0,0,0
Club Handy,Beale Street,"200 Beale St, Memphis, TN 38103",35.13974207,-90.05124082,"Bar, Live Music","Casual, Bar","Drinks, Light Snacks","Club Handy, nestled on historic Beale Street, is a classic blues bar offering live music performances and a lively, nostalgic atmosphere that honors Memphis’s music legacy. While primarily a nightlife and entertainment destination, it serves simple bar bites to complement the drinks. Options are limited for strict dietary needs, but guests can enjoy the music scene with light snacking.",0,0,0
Cozy Corner,Downtown Memphis,"735 North Pkwy, Memphis, TN 38105",35.15538933,-90.03422642,"BBQ, Southern","Casual, Family-style","Lunch, Dinner","Cozy Corner is a cherished family-run BBQ spot famous for its barbecued Cornish game hen, ribs, and brisket, all infused with a rich, smoky flavor. The humble, welcoming environment makes it a hidden gem for barbecue enthusiasts. Though meat is central, sides like baked beans and slaw offer simple vegetarian-friendly options.",0,1,0
Crazy Coop,Downtown Memphis,"3 S Main St, Memphis, TN 38103",35.15410529,-90.06205841,"Fried Chicken, Wings","Casual, Fast Casual","Lunch, Dinner","Crazy Coop specializes in crispy fried chicken tenders and wings tossed in a variety of bold, flavorful sauces ranging from mild to fiery. The bright, laid-back interior and fast-casual format make it great for a quick and satisfying meal. While the menu is heavily meat-based, guests can enjoy fries and a few sides for lighter, vegetarian-friendly snacking.",0,0,0
Dyer’s on Beale,Beale Street,"205 Beale St, Memphis, TN 38103",35.13955456,-90.05102702,"Burgers, Southern","Casual, Fast Casual","Lunch, Dinner","Dyer’s on Beale is a historic burger joint famous for its burgers deep-fried in a legendary seasoned grease that dates back over a century. The casual, bustling vibe fits perfectly on Beale Street. While primarily known for indulgent burgers, fries and sides round out the menu, providing lighter options for those looking to enjoy a classic Memphis stop without the heavier fare.",0,0,0
Earnestine and Hazel’s,—,"531 S Main St, Memphis, TN 38103",35.13311691,-90.05937979,"Bar, Soul Food","Casual, Bar","Lunch, Dinner","Earnestine and Hazel’s is an iconic dive bar known for its soulful, music-filled atmosphere and the legendary “Soul Burger,” a simple yet flavorful local favorite. The building's storied past adds to its character, drawing visitors from around the world. Vegetarian options are limited, but guests can soak in the rich Memphis music history while enjoying classic bar bites and casual Southern hospitality.",0,0,0
Fabulous Flavors and Friends,Whitehaven,"2063 E Brooks Rd, Memphis, TN 38116",35.06061547,-89.99454202,"Southern, Soul Food","Casual, Family-style","Lunch, Dinner","Fabulous Flavors and Friends serves up homestyle soul food classics like fried catfish, smothered pork chops, and savory sides in a welcoming, family-style environment. The menu celebrates comforting, made-from-scratch dishes that highlight Southern tradition. While focused on meat-based entrees, vegetarian sides like collard greens, yams, and mac and cheese provide satisfying options for non-meat eaters.",0,0,0
Fat Tuesday,Downtown Memphis,"8 S Main St Suite 101, Memphis, TN 38103",35.14504419,-90.05260913,"Drinks, Bar","Casual, Bar","Drinks, Snacks","Fat Tuesday brings the lively spirit of New Orleans to Memphis with its frozen daiquiris and festive atmosphere. It's a popular spot for grabbing colorful frozen drinks to-go or hanging out with friends in a casual, laid-back setting. Food offerings are minimal and focused on quick bar snacks rather than full meals, so dietary options are limited.",0,0,0
Gibson's Donuts,East Memphis,"760 Mt Moriah Rd, Memphis, TN 38117",35.11047135,-89.89497218,"Snacks, Sweets, Donuts","Casual, Takeout","Breakfast, Late-night","A Memphis institution open 24,7, Gibson's Donuts is beloved for its fresh, fluffy donuts in classic and creative varieties. From old-fashioned glazed to maple bacon, there’s something for every sweet tooth. Vegetarian-friendly by nature, Gibson’s is a perfect stop for a late-night snack or a morning treat, embodying the warmth and simplicity of an old-school donut shop.",0,0,0
Gus's World Famous Chicken,East Memphis,"730 S Mendenhall Rd, Memphis, TN 38117",35.11120489,-89.89453007,"Fried Chicken, Southern","Casual, Fast Casual","Lunch, Dinner","Famous for its spicy, crispy fried chicken, Gus’s offers a true Memphis classic loved by locals and visitors alike. The simple, no-frills environment focuses all attention on the chicken, which is juicy and flavorful. Vegetarian options are limited to sides like beans, slaw, and fries, so it's best suited to those looking to indulge in the iconic fried chicken experience Memphis is known for.",0,0,0
Gus's World Famous Chicken,Downtown Memphis,"310 S Front St, Memphis, TN 38103",35.16640212,-90.06709056,"Fried Chicken, Southern","Casual, Fast Casual","Lunch, Dinner","Famous for its spicy, crispy fried chicken, Gus’s offers a true Memphis classic loved by locals and visitors alike. The simple, no-frills environment focuses all attention on the chicken, which is juicy and flavorful. Vegetarian options are limited to sides like beans, slaw, and fries, so it's best suited to those looking to indulge in the iconic fried chicken experience Memphis is known for.",0,0,0
Jerry’s Sno Cones and Burger Shack,Cordova,"1601 Bonnie Ln, Cordova, TN 38016",35.16927051,-89.79128786,"American, Fast Food, Snacks","Casual, Family-friendly","Lunch, Dinner","Jerry’s Sno Cones and Burger Shack is a fun, casual spot offering classic American fast food staples like burgers, fries, and refreshing sno cones. The simple menu includes vegetarian-friendly items such as veggie burgers and fries, making it a family-friendly stop for quick, flavorful bites and sweet treats, especially during Memphis’ warm months.",0,0,0
Marlowe’s Ribs,South Memphis,"4381 Elvis Presley Blvd, Memphis, TN 38116",35.02926022,-90.02531714,"BBQ, Southern","Casual, Family-style","Lunch, Dinner","Marlowe’s Ribs serves up classic Memphis-style BBQ in a relaxed, casual setting. Known for its tender ribs and flavorful sauces, it’s a go-to for barbecue lovers. Vegetarian options are limited, typically to classic Southern sides like baked beans and coleslaw, but the welcoming atmosphere and smoky aromas draw crowds looking for authentic Memphis BBQ.",0,1,0
One11Madison,Downtown Memphis,"111 Madison Ave, Memphis, TN 38103",35.14516283,-90.05242993,"New American, Upscale","Upscale, Fine Dining","Brunch, Dinner","Located downtown in a chic, three-level venue, One11 Madison delivers upscale brunch, dinner, and live music experiences with refined New American cuisine. Signature dishes span wild mushroom pasta, pimento shrimp, lobster linguine, sautéed Scottish salmon, rosemary chicken, and standout deviled eggs and salads. Many menu items are naturally gluten‑free or easily adapted. The polished ambiance, live jazz, and event hosting elevate any visit.",0,1,0
Payne’s Bar-B-Que,—,"1762 Lamar Ave, Memphis, TN 38114",35.1184645,-90.00305149,"BBQ, Southern","Casual, Family-style","Lunch, Dinner","Payne’s Bar-B-Que delivers authentic Memphis BBQ in a casual, no-frills environment. Known for its smoked meats and tangy sauces, it offers a selection of traditional sides. Vegetarian options are limited but include some classic Southern sides like baked beans and coleslaw. The welcoming, laid-back atmosphere makes it a favorite among locals craving true Memphis flavor.",0,0,0
Pete and Sam’s,—,"3886 Park Ave, Memphis, TN 38111",35.10815317,-89.93292736,"Bar & Grill, American","Casual, Bar","Lunch, Dinner","Pete and Sam’s is a neighborhood bar and grill offering a solid menu of burgers, sandwiches, and bar snacks. Vegetarian options such as salads and veggie burgers are available, and the friendly atmosphere invites both regulars and visitors to enjoy good food and drinks in a relaxed setting.",0,0,0
Pig on Beale,Beale Street,"167 Beale St, Memphis, TN 38103",35.139724,-90.05200445,"BBQ, Southern","Casual, Family-style","Lunch, Dinner","Pig on Beale serves up classic Memphis BBQ with a lively atmosphere near Beale Street. The menu features smoked ribs, pulled pork, and savory sides. Vegetarian options are limited but some sides accommodate plant-based diners. This spot is popular with tourists and locals alike for its authentic flavors and vibrant vibe.",0,1,0
Pollard’s BBQ,Whitehaven,"4560 Elvis Presley Blvd, Memphis, TN 38116",35.024954,-90.02448567,"BBQ, Southern","Casual, Family-style","Lunch, Dinner","Pollard’s BBQ is a family-owned BBQ joint known for its tender meats and homemade sauces. The casual setting is perfect for enjoying Memphis-style smoked ribs and pulled pork. Vegetarian options are generally limited to classic Southern sides, but the warm hospitality and quality BBQ make it a must-visit for barbecue fans.",0,1,0
Rum Boogie Cafe,Beale Street,"182 Beale St, Memphis, TN 38103",35.13984798,-90.05152056,"Southern, Bar & Grill","Casual, Bar","Lunch, Dinner","Rum Boogie Cafe is a vibrant live music venue on Beale Street, featuring a menu of Southern-inspired bar food and drinks. While primarily known for its energetic atmosphere and blues performances, the cafe also offers some vegetarian and gluten-free options. It’s a go-to spot for music lovers looking to enjoy great tunes alongside classic Memphis eats.",0,1,0
Smurfey's Smokehouse,Downtown Memphis,"62 N Main St, Memphis, TN 38103",35.14693803,-90.05120651,"BBQ, Southern","Casual, Family-style","Lunch, Dinner","Smurfey’s Smokehouse delivers authentic Memphis-style BBQ with slow-smoked meats and flavorful sauces. The casual eatery provides a range of classic sides, some vegetarian-friendly, and limited gluten-free options. The relaxed atmosphere and dedication to traditional barbecue techniques draw in BBQ aficionados seeking a genuine taste of Memphis.",0,1,0
South of Beale,Downtown Memphis,"345 S Main St, Memphis, TN 38103",35.13733225,-90.05626604,"Bar & Grill, Southern","Casual, Bar","Lunch, Dinner","South of Beale offers a laid-back bar and grill experience with a menu including burgers, sandwiches, and Southern-inspired dishes. Vegetarian and gluten-free options are available, appealing to a broad audience. Known for its friendly service and lively atmosphere, it’s a favorite spot for casual dining and socializing.",0,1,0
South of Beale,East Memphis,"5040 Sanderlin Ave, Memphis, TN 38117",35.11834607,-89.89362421,"Bar & Grill, Southern","Casual, Bar","Lunch, Dinner","South of Beale offers a laid-back bar and grill experience with a menu including burgers, sandwiches, and Southern-inspired dishes. Vegetarian and gluten-free options are available, appealing to a broad audience. Known for its friendly service and lively atmosphere, it’s a favorite spot for casual dining and socializing.",0,1,0
The Bar-B-Q Shop,Midtown,"1782 Madison Ave, Memphis, TN 38104",35.13817139,-90.00137741,"BBQ, Southern","Casual, Family-style","Lunch, Dinner","The Bar-B-Q Shop is a local favorite for Memphis-style barbecue, serving slow-smoked ribs, pulled pork, and classic sides. The casual spot offers some vegetarian and gluten-free options, such as salads and baked potatoes. Known for its friendly service and authentic flavors, it’s a go-to destination for barbecue lovers seeking an unpretentious dining experience.",0,1,0
The Four Way Restaurant,East Memphis,"998 Mississippi Blvd, Memphis, TN 38126",35.11988721,-90.03826845,"Southern, Soul Food","Casual, Family-style","Lunch, Dinner","The Four Way serves classic Memphis soul food in a storied, corner‑restaurant atmosphere. Signature dishes include fried catfish, turkey with dressing, neckbones, collard greens, smothered cabbage, macaroni & cheese, and peach cobbler. Founded in 1946, it’s a beloved community hub woven into civil rights history, known for its warm service and deeply flavorful home‑style cooking.",0,0,0
Wings on the Fly,Downtown Memphis,"4560 Millbranch Rd, Memphis, TN 38116",35.09270201,-90.0212177,"Wings, Fast Casual","Casual, Takeout","Lunch, Dinner","Wings on the Fly specializes in hand-breaded chicken wings with a variety of sauces and heat levels. It’s favored by those seeking quick, flavorful wings in a relaxed environment.",0,0,0
Arcade Restaurant,Downtown Memphis,"540 S Main St, Memphis, TN 38103",35.15203942,-90.05509664,"Diner, Southern","Casual, Family-style","Breakfast, Lunch, Dinner","Arcade Restaurant, Memphis’s oldest cafe, offers a nostalgic, retro diner experience complete with hearty breakfast plates, milkshakes, and classic Southern comfort food. Its vintage charm and film-famous booths attract visitors year-round. While best known for its traditional fare, guests can find vegetarian-friendly options and simpler dishes to enjoy in this historic Beale Street favorite.",0,0,0
Alchemy,Midtown,"940 Cooper St, Memphis, TN 38104",35.12020696,-89.99000098,"Bar, Small Plates","Casual, Bar","Lunch, Dinner","Alchemy in Midtown’s Cooper-Young district is a stylish restaurant and bar known for creative small plates, shareable dishes, and inventive cocktails. The lively, lounge-like vibe makes it perfect for relaxed evenings. The menu offers gluten-free and vegetarian-friendly options, welcoming diverse palates who enjoy a mix of bold flavors and sophisticated drinks.",0,1,0
Aldo's Pizza Pies,Downtown Memphis,"100 S Main St Suite 101, Memphis, TN 38103",35.14752142,-90.05548353,"Pizza, Italian","Casual, Family-style","Lunch, Dinner","Aldo’s Pizza Pies delivers the same beloved thin-crust pizzas with inventive toppings and hearty slices. Its spacious, energetic space is ideal for sharing pies with friends or grabbing a late-night bite. Gluten-free crust is available, offering flexibility for those with dietary restrictions who still want to enjoy Memphis pizza culture.",0,1,0
Aldo's Pizza Pies,Midtown,"752 Cooper St, Memphis, TN 38104",35.13197278,-89.97750875,"Pizza, Italian","Casual, Family-style","Lunch, Dinner","Aldo’s Pizza Pies delivers the same beloved thin-crust pizzas with inventive toppings and hearty slices. Its spacious, energetic space is ideal for sharing pies with friends or grabbing a late-night bite. Gluten-free crust is available, offering flexibility for those with dietary restrictions who still want to enjoy Memphis pizza culture.",0,1,0
Amerigo Italian Restaurant,East Memphis,"1239 Ridgeway Rd, Memphis, TN 38119",35.09749447,-89.85951215,Italian,"Casual, Family-style","Lunch, Dinner","Amerigo Italian Restaurant serves comforting Italian classics like house-made pastas, wood-fired pizzas, and seafood dishes in a warm, inviting atmosphere. Gluten-free pasta and vegetarian dishes make it welcoming for a variety of guests seeking traditional flavors with modern accommodations.",0,1,0
Andrew Michael Italian Kitchen,East Memphis,"712 W Brookhaven Cir, Memphis, TN 38117",35.11322015,-89.89044146,Italian,"Upscale, Fine Dining","Lunch, Dinner","Andrew Michael Italian Kitchen blends refined Italian cooking with Southern influence, featuring handmade pastas and inventive dishes using local Memphis ingredients. The elegant yet cozy dining room sets the stage for memorable meals. The menu includes vegetarian-friendly options and can substitute gluten-free pasta for most of their pasta dishes.",0,1,0
Archives Bistro and Bar,Downtown Memphis,"179 Madison Ave, Memphis, TN 38103",35.14427606,-90.04987312,"American, Bistro","Upscale, Fine Dining","Lunch, Dinner","Archives Bistro and Bar, located inside the Memphis Sheraton, serves refined American bistro dishes in an elegant, contemporary setting. Highlights include locally inspired plates, steaks, and fresh seafood. The menu includes several clearly labeled gluten-free options such as oysters, rack of lamb, and cauliflower steak.",0,1,0
Automatic Slim’s,Downtown Memphis,"83 S 2nd St, Memphis, TN 38103",35.14280027,-90.0518461,"Southern, Brunch","Casual, Family-style","Brunch, Lunch","Automatic Slim’s is a playful, colorful downtown spot known for its eclectic Southern-inspired comfort food and fun brunch cocktails. The laid-back yet trendy atmosphere makes it popular with locals and visitors alike. The menu includes vegetarian options and clearly-labeled gluten-free options.",0,1,0
Bardog Tavern,Downtown Memphis,"73 Monroe Ave, Memphis, TN 38103",35.14446976,-90.0536761,"Bar, Pub","Casual, Bar","Lunch, Dinner","Bardog Tavern is a laid-back neighborhood gastropub known for its hearty sandwiches, burgers, and late-night eats, all served in a cozy, brick-lined space. The welcoming vibe makes it a local favorite. The menu includes vegetarian options and clearly-labeled gluten-free items.",0,1,0
Brain Food Memphis,Midtown,"7946 Fischer Steel Rd, Cordova, TN 38018",35.14756886,-89.79793221,"American, Pasta, Seafood","Casual, Fast Casual","Lunch, Dinner","Brain Food Memphis serves build‑your‑own pasta bowls (rotini noodles with Alfredo sauce and toppings), seafood plates (including battered shrimp, catfish, lamb, sliders, and grilled vegetables), and more—all made fresh and well‑seasoned.",0,0,0
Brookhaven Pub and Grill,East Memphis,"695 W Brookhaven Cir, Memphis, TN 38117",35.11212183,-89.89078797,"Bar & Grill, American","Casual, Bar","Lunch, Dinner","Brookhaven Pub and Grill is a relaxed neighborhood spot known for its welcoming patio, lively sports atmosphere, and comfort food favorites like burgers, wings, and quesadillas. The menu offers vegetarian options, lighter salads, and some gluten-free options.",0,1,0
Bryant’s Breakfast,—,"3965 Summer Ave, Memphis, TN 38122",35.14894723,-89.92840819,"Breakfast, Diner, Southern","Casual, Family-style",Breakfast,"Bryant’s Breakfast is a long-standing Memphis institution famous for its no-frills, comforting Southern breakfast plates like country ham, biscuits, and fluffy pancakes. Guests can opt for egg plates, lighter biscuit sandwiches, and customize orders to suit simpler or vegetarian preferences.",0,1,0
By the Brewery,South Main,"496 Tennessee St #101, Memphis, TN 38103",35.13468348,-90.06193795,"Bar, Taproom","Casual, Bar","Lunch, Dinner",By the Brewery is a casual taproom offering a rotating selection of locally brewed beers paired with a small menu of shareable bites and snacks. Food offerings include vegetarian-friendly snacks and some gluten-free options.,0,1,0
Capriccio Grill,Downtown Memphis,"149 Union Ave #10, Memphis, TN 38103",35.14281446,-90.05160346,"Italian, Steakhouse","Upscale, Fine Dining",Dinner,"Capriccio Grill at The Peabody offers an elegant, classic Italian steakhouse experience with expertly prepared steaks, seafood, and pasta dishes in a refined setting. Known for its warm service and luxurious vibe, it’s perfect for special occasions. Vegetarian pasta dishes and salads are available, and they are very accommodating for gluten-free requests.",0,1,0
Catherine and Mary’s,Downtown Memphis,"272 S Main St ste 105-a, Memphis, TN 38103",35.13882386,-90.05482938,"Italian, Contemporary","Upscale, Fine Dining","Lunch, Dinner","Catherine and Mary’s delivers inventive Italian cuisine with Southern influences in a stylish, contemporary downtown setting. Chefs Andy Ticer and Michael Hudman emphasize seasonal ingredients and bold flavors. The restaurant offers gluten-free pasta and clean prep practices, making it suitable for gluten-sensitive diners.",0,1,0
Celtic Crossing,Cooper‑Young,"903 Cooper St, Memphis, TN 38104",35.12108781,-89.9913248,"Irish, Pub","Casual, Bar","Lunch, Dinner","Celtic Crossing offers an authentic Irish pub experience with hearty favorites like fish and chips, shepherd’s pie, and bangers and mash, complemented by a wide selection of beers and whiskies. Its large patio and live music nights create a lively atmosphere. Vegetarian-friendly options such as salads and veggie sandwiches are available.",0,0,0
Central BBQ,East Memphis,"6201 Poplar Ave, Memphis, TN 38119",35.10561714,-89.84374853,"BBQ, Southern","Casual, Family-style","Lunch, Dinner","Central BBQ is a Memphis icon celebrated for its tender, slow-smoked meats, flavorful sauces, and laid-back, family-friendly atmosphere. Signature items include pulled pork, ribs, and barbecue nachos, all naturally gluten-free. Vegetarian-friendly sides include mac and cheese, potato salad, and green salads.",0,1,0
Central BBQ,Downtown Memphis,"147 E Butler Ave, Memphis, TN 38103",35.14142311,-90.05340776,"BBQ, Southern","Casual, Family-style","Lunch, Dinner","Central BBQ is a Memphis icon celebrated for its tender, slow-smoked meats, flavorful sauces, and laid-back, family-friendly atmosphere. Signature items include pulled pork, ribs, and barbecue nachos, all naturally gluten-free. Vegetarian-friendly sides include mac and cheese, potato salad, and green salads.",0,1,0
Char Restaurant,East Memphis,"431 S Highland St #120, Memphis, TN 38111",35.11977309,-89.94527643,"Steakhouse, Southern","Upscale, Fine Dining","Lunch, Dinner","Char Restaurant offers an upscale, classic steakhouse experience with prime cuts of beef, fresh seafood, and elegant Southern-inspired sides. Known for attentive service and an extensive wine list, it’s ideal for special occasions. Fresh salads, vegetarian sides, and a dedicated gluten-free menu are available.",0,1,0
Charlie Vergos’ Rendezvous,Downtown Memphis,"52 S 2nd St, Memphis, TN 38103",35.14356293,-90.0512637,"BBQ, Southern","Casual, Family-style","Lunch, Dinner","Charlie Vergos’ Rendezvous is an iconic downtown spot famous for Memphis-style dry-rub ribs and a lively historic basement dining room. While focused on ribs and pork plates, guests can enjoy sides like beans, slaw, and cheese plates. Many menu items are naturally gluten-free.",0,1,0
Chez Philippe,Downtown Memphis,"2638, 149 Union Ave #4, Memphis, TN 38103",35.14280796,-90.05160909,"French, Fine Dining","Upscale, Fine Dining",Dinner,"Located inside The Peabody Hotel, Chez Philippe offers elegant French-inspired cuisine in a grand, opulent dining room. Known for sophisticated service and multi-course tasting menus. Gluten-free options are available upon request, with careful attention to dietary restrictions.",0,1,0
Cocozza American Italian,Harbor Town,"106 Harbor Town Square, Memphis, TN 38103",35.16126878,-90.05392649,"Italian, American","Casual, Family-style","Lunch, Dinner","Cocozza American Italian offers a vintage-inspired setting highlighting comforting Italian-American classics like lasagna, chicken parm, and pasta dishes. Gluten-free penne pasta is available, along with vegetarian pastas and salads, giving diners old-school Italian flavors with modern flexibility.",0,1,0
Corky’s BBQ,East Memphis,"5259 Poplar Ave, Memphis, TN 38119",35.1371832,-89.88389426,"BBQ, Southern","Casual, Family-style","Lunch, Dinner","Corky’s BBQ is a legendary Memphis institution with succulent ribs, pulled pork, and hickory-smoked flavors. The casual, down-home atmosphere and friendly service make it a go-to for locals and tourists. Vegetarian-friendly sides include baked beans, slaw, and salads. Many items are naturally gluten-free.",0,1,0
Curfew,Downtown Memphis,"164 Union Ave, Memphis, TN 38103",35.14298186,-90.05109871,"Bar & Grill, American","Casual, Bar","Lunch, Dinner","Curfew, inside the Canopy Hotel, offers a modern bar and grill experience with shareable plates, hearty entrees, and inventive cocktails. Vegetarian options include salads and vegetable-based starters, providing variety for diverse dietary preferences.",0,1,0
Erling Jensen Small Bites Topgolf Swing Suites,East Memphis,"5069 Sanderlin Ave, Memphis, TN 38117",35.1166132,-89.89228913,"Tapas, American, Global","Casual, Small Plates","Lunch, Dinner","This spot combines small plates and golf simulation suites in a modern environment. The menu features chef-driven tapas with Southern and global influences, offering rich meats and lighter vegetarian plates. The flexibility of small bites accommodates diverse dietary needs.",0,1,0
ESCO Memphis Seafood and Tapas,Downtown Memphis,"158 Lt. George W Lee Ave, Memphis, TN 38103",35.13924829,-90.05248297,"Seafood, Southern, Tapas","Casual, Small Plates","Lunch, Dinner","ESCO Memphis offers upscale seafood and Southern-inspired tapas. Naturally gluten-free dishes include lobster tail, crab claws, and shrimp. Vegetarian options such as salads and vegetable tapas are also available, making it ideal for mixed groups.",0,1,0
Fishbowl at the Pyramid,Downtown Memphis,"1 Bass Pro Dr, Memphis, TN 38105",35.15562941,-90.05164278,"American, Sports Bar","Casual, Family-style","Lunch, Dinner","Fishbowl provides an underwater-themed sports bar experience inside Bass Pro Shops Pyramid, featuring casual fare like burgers, wings, and seafood platters. Vegetarian options include salads and sides, though the focus is on hearty American favorites.",0,0,0
Fleming's Prime Steakhouse and Wine Bar,East Memphis,"6245 Poplar Ave, Memphis, TN 38119",35.1011141,-89.8556087,"Steakhouse, American","Upscale, Fine Dining",Dinner,"Fleming's is an upscale steakhouse with prime beef cuts, seafood, and extensive wine options. Gluten-free items include salads, seafood, and desserts like GF chocolate cake. Staff are trained to handle dietary restrictions for an elevated dining experience.",0,1,0
Flight Restaurant and Wine Bar,Downtown Memphis,"39 S Main St, Memphis, TN 38103",35.14431248,-90.05302293,"Fine Dining, American","Upscale, Small Plates",Dinner,"Flight offers fine dining with small ""flights"" of dishes and wine, letting diners sample a variety of flavors. Gluten-free options are available, with staff attentive to dietary restrictions.",0,1,0
Flipside Memphis,Midtown,"1349 Autumn Ave, Memphis, TN 38104",35.15110973,-90.01420481,"American, Bar Food","Casual, Bar","Lunch, Dinner","Flipside Memphis offers a lively, modern environment for casual dining and drinks. Menu features shareable plates, burgers, rice-bowls, and salads. Gluten-free and vegetarian options are clearly marked, making it inclusive for groups with diverse preferences.",0,1,0
Flying Saucer Draught Emporium,Downtown Memphis,"130 Peabody Pl, Memphis, TN 38103",35.29355105,-90.09716052,"Bar & Grill, American","Casual, Pub","Lunch, Dinner","Flying Saucer is known for an extensive craft beer selection in a casual pub setting. Food menu includes pretzels, burgers, flatbreads, gluten-free pizza crust, gluten-free garlic bread, and customizable GF salads, steaks, seafood, and chicken dishes. Vegetarian options include cheese plates and salads.",0,1,0
Folk's Folly Prime Steak House,East Memphis,"551 S Mendenhall Rd, Memphis, TN 38117",35.11609656,-89.8958107,"Steakhouse, American","Upscale, Fine Dining",Dinner,"Folk’s Folly offers a classic steakhouse experience with premium beef cuts, seafood, and rich sides. While meat-focused, vegetarians can enjoy salads and sides. Many items are naturally gluten-free. The intimate setting suits celebrations and special occasions.",0,1,0
Germantown Commissary,Germantown,"2290 S Germantown Rd, Germantown, TN 38138",35.08658388,-89.81009105,"BBQ, Southern","Casual, Family-style","Lunch, Dinner","Germantown Commissary serves authentic Memphis barbecue in a rustic, welcoming space. Famous for slow-smoked ribs and pulled pork, most items are naturally gluten-free. Vegetarian options include classic Southern sides like baked beans, potato salad, and coleslaw.",0,1,0
Hammer and Ale,Midtown,"921 Cooper St, Memphis, TN 38104",35.12058983,-89.9906856,"Bar & Grill, American","Casual, Pub","Lunch, Dinner",Hammer and Ale offers a cozy neighborhood bar with craft beers and pub fare. Vegetarian options include salads and veggie burgers. The friendly vibe and local beer selection make it great for casual gatherings.,0,0,0
Hog & Hominy,East Memphis,"707 W Brookhaven Cir, Memphis, TN 38117",35.11285553,-89.89065238,"Italian, Southern, Pizza","Casual, Family-style","Lunch, Dinner","Hog & Hominy blends Southern comfort with Italian classics, including wood-fired pizzas and inventive small plates. Gluten-free crusts and modifiable dishes are available for inclusivity.",0,1,0
Huey’s,Cordova,"1771 N Germantown Pkwy, Cordova, TN 38016",35.17468744,-89.79351281,"American, Bar Food","Casual, Family-style","Lunch, Dinner","Huey’s serves classic burgers, sandwiches, and pub favorites in a lively setting. Vegetarian-friendly burgers, salads, and appetizers are available, and the menu accommodates gluten-free diners with clearly marked adjustments.",0,1,0
Huey’s,Germantown,"7677 Farmington Blvd, Germantown, TN 38138",35.09470355,-89.80699092,"American, Bar Food","Casual, Family-style","Lunch, Dinner","Huey’s serves classic burgers, sandwiches, and pub favorites in a lively setting. Vegetarian-friendly burgers, salads, and appetizers are available, and the menu accommodates gluten-free diners with clearly marked adjustments.",0,1,0
Huey’s,Millington,"8570 US-51, Millington, TN 38053",35.36045695,-89.89090704,"American, Bar Food","Casual, Family-style","Lunch, Dinner","Huey’s serves classic burgers, sandwiches, and pub favorites in a lively setting. Vegetarian-friendly burgers, salads, and appetizers are available, and the menu accommodates gluten-free diners with clearly marked adjustments.",0,1,0
Huey’s,Midtown,"1927 Madison Ave, Memphis, TN 38104",35.13757083,-89.99639594,"American, Bar Food","Casual, Family-style","Lunch, Dinner","Huey’s serves classic burgers, sandwiches, and pub favorites in a lively setting. Vegetarian-friendly burgers, salads, and appetizers are available, and the menu accommodates gluten-free diners with clearly marked adjustments.",0,1,0
Huey’s,East Memphis,"4872 Poplar Ave, Memphis, TN 38117",35.11483728,-89.89894255,"American, Bar Food","Casual, Family-style","Lunch, Dinner","Huey’s serves classic burgers, sandwiches, and pub favorites in a lively setting. Vegetarian-friendly burgers, salads, and appetizers are available, and the menu accommodates gluten-free diners with clearly marked adjustments.",0,1,0
Huey’s,Downtown Memphis,"77 S 2nd St, Memphis, TN 38103",35.14312511,-90.05190173,"American, Bar Food","Casual, Family-style","Lunch, Dinner","Huey’s serves classic burgers, sandwiches, and pub favorites in a lively setting. Vegetarian-friendly burgers, salads, and appetizers are available, and the menu accommodates gluten-free diners with clearly marked adjustments.",0,1,0
Huey’s,Collierville,"2130 W Poplar Ave Suite 101, Collierville, TN 38017",35.05307422,-89.73289404,"American, Bar Food","Casual, Family-style","Lunch, Dinner","Huey’s serves classic burgers, sandwiches, and pub favorites in a lively setting. Vegetarian-friendly burgers, salads, and appetizers are available, and the menu accommodates gluten-free diners with clearly marked adjustments.",0,1,0
Huey’s,North Mississippi,"8179 McGregor Xing Suite 200, Olive Branch, MS 38654",34.97170868,-89.84494881,"American, Bar Food","Casual, Family-style","Lunch, Dinner","Huey’s serves classic burgers, sandwiches, and pub favorites in a lively setting. Vegetarian-friendly burgers, salads, and appetizers are available, and the menu accommodates gluten-free diners with clearly marked adjustments.",0,1,0
Huey’s,Southaven,"7090 Malco Blvd, Southaven, MS 38671",34.96392552,-89.9852376,"American, Bar Food","Casual, Family-style","Lunch, Dinner","Huey’s serves classic burgers, sandwiches, and pub favorites in a lively setting. Vegetarian-friendly burgers, salads, and appetizers are available, and the menu accommodates gluten-free diners with clearly marked adjustments.",0,1,0
Huey’s,Southwind,"7825 Winchester Rd, Memphis, TN 38125",35.04761282,-89.80248468,"American, Bar Food","Casual, Family-style","Lunch, Dinner","Huey’s serves classic burgers, sandwiches, and pub favorites in a lively setting. Vegetarian-friendly burgers, salads, and appetizers are available, and the menu accommodates gluten-free diners with clearly marked adjustments.",0,1,0
Itta Bena,Beale Street,"145 Beale St, Memphis, TN 38103",35.1398292,-90.05299528,"Southern , Upscale",Fine Dining,"Dinner , Special Occasions","Located atop the Peabody Hotel, Itta Bena offers upscale Southern cuisine with a modern twist in an intimate, elegant setting. The menu highlights local ingredients, with options ranging from seafood to vegetarian dishes crafted with Southern flair. Gluten-free and dairy-free accommodations are available upon request, making it suitable for special occasions and those with dietary restrictions.",0,1,0
Jem,The Edge,"644 Madison Ave #102, Memphis, TN 38103",35.14177339,-90.03917364,"American , Bar & Grill",Casual Dining,"Lunch, Dinner","Jem features a relaxed bar and grill experience with a menu of hearty sandwiches, burgers, and creative bar snacks. The atmosphere is casual and inviting, popular for after-work hangouts. Vegetarian choices include salads and a veggie burger, and the kitchen is accommodating for gluten-free requests. The drink menu complements the food with a good range of local beers and classic cocktails.",0,1,0
King and Union Bar Grocery,Downtown Memphis,"185 Union Ave, Memphis, TN 38103",35.14256354,-90.0505522,"American , Gastropub","Casual , Upscale Bar","Lunch, Dinner","King and Union is a unique combination of craft cocktail bar and gourmet grocery offering an artisanal experience. The small plates menu features shareable dishes with vegetarian options, perfect for pairing with their expertly crafted drinks. They offer a selection of items that are naturally gluten-free or can be made gluten-free. The atmosphere is stylish yet comfortable, appealing to those seeking quality food and drink with a curated vibe.",0,1,0
Kooky Canuck,Downtown Memphis,"87 S 2nd St, Memphis, TN 38103",35.14274853,-90.05260374,"American , Bar & Grill",Casual Dining,"Lunch, Dinner","Kooky Canuck is a lively American bar and grill known for generous portions and a diverse menu including burgers, steaks, and seafood. Vegetarian options like salads and veggie burgers are available, alongside gluten-free choices. The fun, casual atmosphere and friendly service make it a popular spot for groups and casual dining in Memphis.",0,1,0
Lafayette's Music Room,Midtown,"2119 Madison Ave, Memphis, TN 38104",35.13654688,-89.99083843,"Southern , Live Music",Casual Dining,"Lunch, Dinner","Lafayette’s Music Room combines great Southern cooking with live music in an intimate venue. The menu includes traditional Southern dishes, with some vegetarian-friendly sides and options. Several dishes are listed as gluten-free, including Lettuce Wraps, Crispy Pork Belly, various salads such as the Grilled Salmon Salad and BLT Chopped Salad, and entrees like the Bone-In Pork Chop and Grilled Salmon. Guests enjoy local musical acts while dining in a cozy, laid-back environment, creating an authentic Memphis experience that blends food and culture.",0,1,0
Magnolia and May,East Memphis,"718 Mt Moriah Rd, Memphis, TN 38117",35.11147662,-89.89443075,"Southern , Bayou",Casual Dining,"Lunch, Dinner","Magnolia and May brings a fresh take on Southern Bayou cuisine with bold flavors and seasonal ingredients. The casual atmosphere pairs well with dishes like jambalaya and fried green tomatoes. Vegetarians will find options like vegetable sides and creative salads, while the kitchen is open to accommodating dietary preferences and restrictions, delivering a flavorful Southern dining experience.",0,1,0
McEwen's Memphis,Downtown Memphis,"120 Monroe Ave, Memphis, TN 38103",35.14419246,-90.05190373,"Southern , Contemporary",Fine Dining,"Dinner , Special Occasions","McEwen's Memphis offers a sophisticated dining experience with a seasonally driven menu focusing on local ingredients and creative dishes. The elegant atmosphere suits special occasions, with attentive service and options for vegetarian and gluten-free diners. The menu features expertly crafted entrees that highlight Southern flavors with a contemporary touch.",0,1,0
Memphis Chess Club,Downtown Memphis,"195 Madison Ave, Memphis, TN 38103",35.14442358,-90.04967179,"American , Bar & Grill",Casual Dining,"Lunch, Dinner","Memphis Chess Club is a laid-back bar and grill known for its friendly vibe and diverse menu of burgers, sandwiches, and appetizers. Vegetarian options such as salads and veggie burgers are available, and the venue often hosts chess games and community events, making it a unique spot for socializing and casual dining.",0,0,0
Owen Brennan's Restaurant,East Memphis,"6150 Poplar Ave #150, Memphis, TN 38119",35.10226392,-89.85673758,"Seafood , Steakhouse",Fine Dining,"Dinner , Special Occasions","Owen Brennan’s Restaurant combines classic seafood and steakhouse fare with Southern hospitality in an elegant dining room. The menu offers fresh seafood, premium steaks, and vegetarian dishes, with gluten-free accommodations on request. Known for its refined atmosphere and quality service, it’s a go-to for celebratory dinners and upscale dining experiences.",0,1,0
Paulette’s Restaurant,Downtown Memphis,"50 Harbor Town Square, Memphis, TN 38103",35.16138783,-90.05554544,"Southern , Upscale",Fine Dining,"Dinner , Special Occasions","Paulette’s Restaurant serves upscale Southern cuisine with a focus on seasonal ingredients and sophisticated presentations. The elegant setting pairs well with the creative menu, which includes vegetarian and gluten-free options. Paulette’s is known for attentive service and a well-curated wine list, perfect for special occasions and intimate dinners.",0,1,0
Poparoos,Midtown,"726 North Pkwy, Memphis, TN 38107",35.97157218,-90.09883089,"Snack , Dessert","Casual , Quick Service","Snack , Light Meals","Poparoos is a gourmet popcorn bar offering a wide variety of handcrafted popcorn flavors, many of which are naturally gluten-free. With a playful and welcoming atmosphere, it’s a great spot for snacking, gift shopping, or hosting events. The menu includes sweet, savory, and seasonal blends, making it a fun and flavorful destination for all ages.",0,1,0
Porch and Parlor,Midtown,"2125 Madison Ave, Memphis, TN 38104",35.13655018,-89.99036755,"Southern , American","Casual , Upscale",Dinner,"Porch and Parlor combines Southern-inspired cuisine with craft cocktails in a cozy, stylish setting. The menu features locally sourced ingredients and offers vegetarian and gluten-free dishes. The inviting ambiance and creative drinks list make it a great spot for dinner or a casual night out.",0,1,0
R.P. Tracks Restaurant and Bar,—,"3547 Walker Ave, Memphis, TN 38111",35.11642895,-89.94418272,"American , Bar & Grill",Casual Dining,"Lunch, Dinner","R.P. Tracks Restaurant and Bar is a lively venue offering a diverse menu of burgers, sandwiches, and Southern classics. Vegetarian options like salads and veggie burgers are offered, alongside gluten-free accommodations. The friendly atmosphere and solid drink selection make it popular for casual dining and social events.",0,1,0
Restaurant Iris,Midtown,"4550 Poplar Ave, Memphis, TN 38117",35.12081701,-89.91031763,"Contemporary , Fine Dining",Fine Dining,"Dinner , Special Occasions","Restaurant Iris is a contemporary fine dining establishment featuring a seasonally inspired menu with a focus on fresh, local ingredients. The elegant ambiance and attentive service provide a refined experience. Vegetarian and gluten-free options are thoughtfully incorporated, making it a standout choice for special occasions or an elevated night out.",0,1,0
Ronnie Grisanti’s Italian Restaurant,East Memphis,"6150 Poplar Ave #122, Memphis, TN 38119",35.10292666,-89.85748874,"Italian , Classic","Casual , Family Style","Lunch, Dinner","Ronnie Grisanti’s Italian Restaurant offers classic Italian dishes crafted with fresh ingredients and traditional recipes. The cozy, family-friendly atmosphere complements a menu featuring pasta, seafood, and meat entrees, with vegetarian and gluten-free options available upon request. Known for generous portions and a welcoming vibe, it’s a favorite for authentic Italian dining in Memphis.",0,1,0
Sekisui Midtown,Midtown,"25 S Belvedere Blvd, Memphis, TN 38104",35.13722391,-90.00487418,"Japanese , Sushi","Casual , Upscale","Lunch, Dinner","Sekisui Midtown is a modern Japanese restaurant specializing in sushi and creative small plates. The sleek setting complements an extensive menu featuring fresh sushi, sashimi, and cooked dishes. Vegetarian sushi rolls and gluten-free options are available, catering to a range of dietary preferences. It’s popular for both casual dining and special occasions.",0,1,1
Sekisui Pacific Rim and Sushi Bistro,East Memphis,"4724 Poplar Ave, Memphis, TN 38117",35.11916553,-89.90503819,"Japanese , Sushi","Casual , Upscale","Lunch, Dinner","Sekisui Pacific Rim and Sushi Bistro blends traditional Japanese sushi with Pacific Rim influences, offering a diverse menu in a stylish atmosphere. Vegetarian and gluten-free options are included, highlighting fresh seafood and innovative flavor combinations. The restaurant is praised for its attentive service and vibrant ambiance, making it a top choice for sushi lovers.",0,1,1
Sheraton Memphis Downtown,Downtown Memphis,"250 N Main St, Memphis, TN 38103",35.15177548,-90.0496954,"American , Hotel Dining","Casual , Polished","Breakfast, Lunch, Dinner","The Sheraton Memphis Downtown restaurant serves a varied menu with Southern and American classics, ideal for hotel guests and locals alike. The casual yet polished dining room offers vegetarian and gluten-free options. With convenient downtown location and welcoming service, it’s a comfortable spot for breakfast, lunch, or dinner during visits to Memphis.",0,1,0
Silky O'Sullivans,Beale Street,"Located on the corner of Beale St &, 183 Beale Street, S B.B. King Blvd, Memphis, TN 38103",35.13955379,-90.05220895,"Irish , Pub",Casual Dining,"Lunch, Dinner","Silky O’Sullivans is a classic Irish pub and restaurant featuring hearty pub fare and a warm, inviting atmosphere. The menu includes traditional Irish dishes alongside Southern favorites, with vegetarian and gluten-free options available. Known for its friendly vibe and live music, it’s a popular gathering place for locals and visitors seeking a casual dining experience.",0,1,0
Soul Fish Cafe,Midtown,"862 Cooper St, Memphis, TN 38104",35.12233901,-89.99008455,"Southern , Seafood",Casual Dining,"Lunch, Dinner","Soul Fish Cafe specializes in Southern-style seafood, featuring fried fish, shrimp, and catfish with a variety of sides. The menu includes gluten-free and some vegetarian options, focusing on fresh, locally sourced ingredients. The casual, family-friendly environment is ideal for a relaxed meal with a taste of Memphis coastal flavors.",0,1,0
Soul Fish Cafe,East Memphis,"4720 Poplar Ave, Memphis, TN 38117",35.11591375,-89.90491056,"Southern , Seafood",Casual Dining,"Lunch, Dinner","Soul Fish Cafe specializes in Southern-style seafood, featuring fried fish, shrimp, and catfish with a variety of sides. The menu includes gluten-free and some vegetarian options, focusing on fresh, locally sourced ingredients. The casual, family-friendly environment is ideal for a relaxed meal with a taste of Memphis coastal flavors.",0,1,0
Soul Fish Cafe,Germantown,"3160 Village Shops Dr, Germantown, TN 38138",35.06486173,-89.75769138,"Southern , Seafood",Casual Dining,"Lunch, Dinner","Soul Fish Cafe specializes in Southern-style seafood, featuring fried fish, shrimp, and catfish with a variety of sides. The menu includes gluten-free and some vegetarian options, focusing on fresh, locally sourced ingredients. The casual, family-friendly environment is ideal for a relaxed meal with a taste of Memphis coastal flavors.",0,1,0
Terrace at The River Inn,Harbor Town,"50 Harbor Town Square, Memphis, TN 38103",35.16143951,-90.05505634,"Southern , American",Fine Dining,"Lunch, Dinner","The Terrace at The River Inn provides elegant dining with views of the Mississippi River. The menu features Southern and American dishes with vegetarian and gluten-free options, perfect for hotel guests and visitors. The refined atmosphere and attentive service make it ideal for relaxed meals with a scenic backdrop.",0,1,0
The Beauty Shop,Midtown,"966 Cooper St #5611, Memphis, TN 38104",35.12385124,-89.99080571,"Southern , American","Casual , Upscale","Lunch, Dinner","The Beauty Shop combines eclectic décor with a menu of Southern-inspired dishes and creative cocktails. Located in a historic beauty salon setting, it offers vegetarian and gluten-free options, emphasizing fresh, local ingredients. The vibrant atmosphere and inventive cuisine make it a popular spot for casual dinners and weekend gatherings.",0,1,0
The Brass Door Irish Pub,Terrace at River Inn,"152 Madison Ave, Memphis, TN 38103",35.14529652,-90.05097146,"Irish , Pub",Casual Dining,"Lunch, Dinner","The Brass Door Irish Pub features traditional Irish fare alongside American pub classics in a cozy, welcoming setting. The menu includes vegetarian and gluten-free options, making it accessible to many diners. Known for its friendly vibe and occasional live music, it’s a favored spot for casual dining and social drinks.",0,1,0
The Lookout at the Pyramid,Downtown Memphis,"1 Bass Pro Dr, Memphis, TN 38105",35.15585416,-90.05205157,"American , Bar & Grill","Casual , Upscale","Lunch, Dinner","Located atop the iconic Memphis Pyramid, The Lookout offers panoramic views alongside a menu of American bar and grill fare. The restaurant features vegetarian and gluten-free options and a wide selection of craft beers. It’s popular for its unique setting and vibrant atmosphere, making it a must-visit for locals and tourists alike.",0,1,0
The Majestic Grille,Downtown Memphis,"145 S Main St, Memphis, TN 38103",35.14155308,-90.05456353,"American , Upscale",Fine Dining,"Dinner , Special Occasions","The Majestic Grille blends historic ambiance with upscale American cuisine, featuring fresh seafood, steaks, and seasonal dishes. Vegetarian and gluten-free options are thoughtfully prepared to accommodate dietary needs. The elegant setting and attentive service make it ideal for special occasions or refined dining experiences.",0,1,0
The Peabody,Downtown Memphis,"149 Union Ave, Memphis, TN 38103",35.14281734,-90.05199423,"Southern , American",Fine Dining,"Lunch, Dinner","The Peabody’s restaurant offers classic Southern and American dishes in an elegant, historic hotel setting. The menu includes vegetarian and gluten-free options, showcasing local flavors and high-quality ingredients. Known for its iconic lobby and sophisticated atmosphere, it’s a premier dining destination in Memphis.",0,1,0
The Second Line,Midtown,"2144 Monroe Ave, Memphis, TN 38104",35.13556628,-89.99008148,"Southern , BBQ",Casual Dining,"Lunch, Dinner","The Second Line combines authentic BBQ with lively jazz music, creating a festive dining atmosphere. The menu features smoked meats and Southern sides, with some vegetarian and gluten-free options available. It’s a favorite spot for those looking to enjoy Memphis culture through food and live music.",0,1,0
Tin Roof Memphis,Beale Street,"315 Beale St, Memphis, TN 38103",35.1394184,-90.05090338,"American , Bar & Grill","Casual , Live Music","Lunch, Dinner","Tin Roof Memphis is a casual live music venue offering a menu of bar snacks, sandwiches, and Southern-inspired dishes. Vegetarian and gluten-free options are available. The venue is known for its energetic atmosphere, regular live performances, and friendly crowd, making it a hotspot for music lovers.",0,1,0
Tsunami Restaurant,Midtown,"928 Cooper St, Memphis, TN 38104",35.12046759,-89.99085013,"Japanese , Sushi , Asian Fusion","Casual , Upscale","Lunch, Dinner","Tsunami Restaurant provides a stylish dining experience with a menu featuring sushi, sashimi, and Asian fusion dishes. It offers vegetarian rolls and gluten-free options, catering to diverse dietary preferences. The sleek design and attentive service make it a top choice for sushi and Japanese cuisine in Memphis.",0,1,1
Tug's Restaurant,Downtown Memphis,"51 Harbor Town Square, Memphis, TN 38103",35.1610237,-90.05515695,"American , Bar & Grill",Casual Dining,"Lunch, Dinner","Tug’s Restaurant is a popular neighborhood bar and grill known for hearty American classics, burgers, and sandwiches. It offers vegetarian and gluten-free options, appealing to a wide range of diners. The casual, friendly atmosphere makes it a local favorite for relaxed meals and social gatherings.",0,1,0
Young Avenue Deli,Midtown,"2119 Young Ave, Memphis, TN 38104",35.11946015,-89.99155443,"Deli , Sandwiches","Casual , Neighborhood","Lunch, Dinner","Young Avenue Deli is a beloved Memphis spot known for its creative sandwiches, hearty deli classics, and casual vibe. The menu includes vegetarian and gluten-free options, with fresh ingredients and generous portions. It's a favorite for laid-back lunches and dinners.",0,1,0
America’s Incredible Pizza Company,Cordova,"1245 N Germantown Pkwy Suite 104, Cordova, TN 38016",35.15990659,-89.79772398,"American , Buffet","Family , Casual","Lunch, Dinner","America’s Incredible Pizza Company combines a 100‑item buffet—featuring over 30 pizzas, pastas, salads, desserts, and more—with a full indoor entertainment center including arcade games, go‑karts, mini‑golf, and rides. Guests can order custom pizzas with gluten‑free crust and vegan cheese, and buffet items traditionally suit various dietary preferences upon request.",1,1,1
Margie's 901 Homemade Ice Cream and Cakes,Downtown Memphis,"125 S Main St, Memphis, TN 38103",35.14172106,-90.05442314,"Dessert , Ice Cream","Quick Service , Casual","Snack , Dessert","Margie's 901 is a beloved dessert spot offering homemade ice cream and cakes made with local ingredients. Vegan and dairy-free ice cream flavors are often available, ensuring all dessert lovers can indulge. The cozy shop atmosphere makes it a perfect treat destination for families and anyone with a sweet tooth seeking quality, handcrafted desserts.",1,1,1
Westy’s,Downtown Memphis,"346 N Main St, Memphis, TN 38103",35.15426968,-90.04895513,"American , Comfort","Casual , Late-Night","Lunch, Dinner, Late Night","Westy’s in Memphis serves up funky charm and late-night comfort food with a twist. Known for its wild rice dishes and gluten-free fried catfish and shrimp, it also offers vegan-friendly options like sautéed veggies and rice bowls. With a quirky vibe, friendly staff, and generous portions—including the famous hot fudge pie—it’s a welcoming spot for diverse diets and lively gatherings, open daily until 2 AM.",1,1,1
Abyssinia Ethiopian Restaurant,Midtown,"2600 Poplar Ave #115, Memphis, TN 38112",35.13780939,-89.9743448,"Ethiopian , Vegan",Casual Dining,"Lunch, Dinner","Abyssinia offers traditional Ethiopian vegan dishes featuring injera, lentils, and vegetable stews packed with spices. The naturally gluten-free and vegan menu provides a unique cultural dining experience for plant-based eaters.",1,1,1
Andalusia,Midtown,"5101 Sanderlin Ave #103, Memphis, TN 38117",35.11657008,-89.89209966,Mediterranean,"Casual , Upscale","Lunch, Dinner","Andalusia serves Mediterranean with fresh salads, grilled vegetables, and hearty grain dishes. They have both traditional dishes and modern vegan options. Their menu also includes gluten-free options, focusing on wholesome, flavorful, and plant-based ingredients.",1,1,1
Another Broken Egg Cafe,East Memphis,"6063 Park Ave, Memphis, TN 38119",35.09925129,-89.86076278,"Breakfast , Brunch",Casual Dining,"Breakfast, Brunch","Another Broken Egg Cafe is a bright, cheerful spot serving both breakfast and brunch, with Southern-inspired classics, creative benedicts, and sweet treats like stuffed French toast. The cozy vibe makes it ideal for lingering mornings. The menu features vegetarian options, gluten-friendly dishes, and lighter fare, making it easy to enjoy a comforting yet customizable dining experience.",0,1,0
Another Broken Egg Cafe,Midtown,"65 S Highland St, Memphis, TN 38111",35.13047979,-89.94638139,"Breakfast , Brunch",Casual Dining,"Breakfast, Brunch","Another Broken Egg Cafe is a bright, cheerful spot serving both breakfast and brunch, with Southern-inspired classics, creative benedicts, and sweet treats like stuffed French toast. The cozy vibe makes it ideal for lingering mornings. The menu features vegetarian options, gluten-friendly dishes, and lighter fare, making it easy to enjoy a comforting yet customizable dining experience.",0,1,0
Babalu Tacos and Tapas,Midtown,"2115 Madison Ave, Memphis, TN 38104",35.13652494,-89.99087314,"Latin , Tapas","Casual , Social","Lunch, Dinner","Babalu Tacos and Tapas brings a lively, social dining style to Overton Square with its shareable Latin-inspired plates and handcrafted tacos. Vegetarian and gluten-free options are clearly marked, allowing guests to build a varied and inclusive meal full of bright, zesty flavors and fresh ingredients. They offer several vegan options, including a cauliflower taco, a black bean burger, and black bean fritters.",1,1,1
Bala’s Bistro,Midtown,"4571 Elvis Presley Blvd, Memphis, TN 38116",35.02386966,-90.02565335,"Mediterranean , Vegan","Casual , Upscale","Lunch, Dinner","Bala’s Bistro focuses on flavorful, wholesome vegan dishes inspired by Mediterranean and Middle Eastern cuisines. They offer many gluten-free and soy-free options, prepared with fresh herbs, grains, and vegetables.",1,1,1
Belltower Coffee,East Memphis,"6903 Great View Dr N, Cordova, TN 38018",35.13849504,-89.83290768,"Café , Coffeehouse","Casual , Café","Breakfast, Lunch","Belltower Coffee combines craft coffee service with a warm, inclusive vibe and a clean, airy setting, making it just as ideal for lunch as it is for your daily coffee fix. Alongside specialty drinks, you’ll find hearty options like bowls, salads, and a gluten-free hummus bowl. Vegetarian pastry choices, dairy-free milk substitutes, and gluten-free items such as a Grab & Go Yogurt Parfait and Fruit Cup ensure everyone can enjoy a comforting, personalized experience whether they’re stopping in for coffee or a satisfying lunch.",0,1,1
Belltower Coffee,University District,"525 S Highland St, Memphis, TN 38111",35.11730528,-89.94586813,"Café , Coffeehouse","Casual , Café","Breakfast, Lunch","Belltower Coffee combines craft coffee service with a warm, inclusive vibe and a clean, airy setting, making it just as ideal for lunch as it is for your daily coffee fix. Alongside specialty drinks, you’ll find hearty options like bowls, salads, and a gluten-free hummus bowl. Vegetarian pastry choices, dairy-free milk substitutes, and gluten-free items such as a Grab & Go Yogurt Parfait and Fruit Cup ensure everyone can enjoy a comforting, personalized experience whether they’re stopping in for coffee or a satisfying lunch.",0,1,1
Brother Juniper’s,East Memphis,"3519 Walker Ave, Memphis, TN 38111",35.1162583,-89.94506912,"Breakfast , Brunch",Casual Dining,"Breakfast, Brunch","Brother Juniper’s is a cozy, laid-back breakfast and brunch cafe known for its generous omelets, homemade breads, and friendly atmosphere near the University of Memphis. It’s a local favorite for students and families alike. Vegetarian and gluten-free options are clearly marked, and the menu emphasizes fresh, house-made ingredients, making it easy to customize to different dietary needs.",0,1,1
Cheffie’s Cafe,East Memphis,"483 High Point Terrace, Memphis, TN 38122",35.14507215,-89.93758397,"Café , Health-Focused","Casual , Build-Your-Own","Snack, Lunch","Cheffie’s is a casual cafe offering build-your-own salads and sandwiches with many vegan and gluten-free options. The menu highlights fresh, local ingredients, catering to a health-conscious crowd in a relaxed atmosphere.",1,1,1
Cheffie’s Cafe,Collierville,"956 E Winchester Blvd # 107, Collierville, TN 38017",35.03830177,-89.70452789,"Café , Health-Focused","Casual , Build-Your-Own","Snack, Lunch","Cheffie’s is a casual cafe offering build-your-own salads and sandwiches with many vegan and gluten-free options. The menu highlights fresh, local ingredients, catering to a health-conscious crowd in a relaxed atmosphere.",1,1,1
City Silo Table + Pantry,Midtown,"580 S Mendenhall Rd, Memphis, TN 38117",35.11508162,-89.89546547,"Vegan , Farm-to-Table",Casual Dining,"Breakfast, Lunch","City Silo Table + Pantry offers a vibrant farm-to-table vegan menu with organic, sustainably sourced ingredients, making it a go-to spot for health-conscious diners. Guests can enjoy both breakfast and lunch gluten-free, with options like gluten-free bread and the Hippie Scramble — a rice, egg, and kale dish topped with a serrano avocado spread. Alongside seasonal vegetables, grains, and legumes, the menu also includes many gluten-free and soy-free choices, ensuring a fresh and nourishing meal for every preference.",1,1,1
Crosstown Arts,Midtown,"1350 Concourse Ave #280, Memphis, TN 38104",35.15193937,-90.01371915,"Café , Community Space","Casual , Arts Hub","Snack, Lunch","Crosstown Arts offers a creative hub blending art galleries, performance spaces, and a bright, modern café featuring fresh, seasonal dishes and coffee. The café emphasizes vegetarian, gluten-free, and vegan-friendly options, with plenty of locally sourced ingredients. This space invites guests to linger, engage with art, and enjoy healthful meals in a vibrant community atmosphere.",1,1,1
DaGuiltyVegan,Midtown,"2053 N Houston Levee Rd, Cordova, TN 38016",35.18159006,-89.73396763,"Vegan , Comfort",Casual Dining,"Lunch, Dinner","DaGuiltyVegan serves indulgent vegan comfort foods such as ""fried chicken,"" BBQ, and mac & cheese, all 100% plant-based. Many items are gluten-free or can be made so on request, offering flavorful options for those craving classic comfort dishes without animal products.",1,1,1
Farm Burger,Midtown,"1350 Concourse Ave #175, Memphis, TN 38104",35.15214742,-90.01330738,"American , Burgers",Casual Dining,"Lunch, Dinner","Farm Burger focuses on serving high-quality, locally-sourced, and sustainably raised food. Their menu features a variety of burgers, including plant-based and vegan options, as well as classic hamburgers, sides, and shakes made from fresh, sustainable ingredients. Guests can enjoy gluten-free bun options and soy-free choices, making it easy to customize any burger or hamburger to fit a range of dietary needs.",1,1,1
Fluffy Vegan,Midtown,"7940 Fischer Steel Rd, Cordova, TN 38018",35.14749955,-89.79823066,"Vegan , Comfort",Casual Dining,"Breakfast, Lunch","Fluffy Vegan specializes in vegan comfort foods with a Southern twist, including pancakes, sandwiches, and desserts. The menu is entirely plant-based with gluten-free options available, ideal for casual dining with a vegan focus.",1,1,1
French Truck Coffee,Downtown Memphis,"732 Madison Ave APT 101, Memphis, TN 38103",35.14115651,-90.03633043,"Café , Coffeehouse","Casual , Café","Snack, Lunch","French Truck Coffee offers bright, cheerful spaces and a dedication to freshly roasted, high-quality coffee. Their minimalist but inviting café serves pastries and light bites, with options often including vegetarian and vegan-friendly treats. They also offer some gluten-free options including gluten-free bread for sandwiches, making it a great place to get lunch if you are gluten-free. It’s a favorite stop for coffee lovers seeking a cozy place to relax or work, and the locally roasted beans bring a fresh, distinctive flavor to every cup.",1,1,1
French Truck Coffee,Midtown,"1350 Concourse Ave #167, Memphis, TN 38104",35.15199303,-90.01307018,"Café , Coffeehouse","Casual , Café","Snack, Lunch","French Truck Coffee offers bright, cheerful spaces and a dedication to freshly roasted, high-quality coffee. Their minimalist but inviting café serves pastries and light bites, with options often including vegetarian and vegan-friendly treats. They also offer some gluten-free options including gluten-free bread for sandwiches, making it a great place to get lunch if you are gluten-free. It’s a favorite stop for coffee lovers seeking a cozy place to relax or work, and the locally roasted beans bring a fresh, distinctive flavor to every cup.",1,1,1
French Truck Coffee,University District,"395 S Highland St Suite 126, Memphis, TN 38111",35.12048447,-89.9458024,"Café , Coffeehouse","Casual , Café","Snack, Lunch","French Truck Coffee offers bright, cheerful spaces and a dedication to freshly roasted, high-quality coffee. Their minimalist but inviting café serves pastries and light bites, with options often including vegetarian and vegan-friendly treats. They also offer some gluten-free options including gluten-free bread for sandwiches, making it a great place to get lunch if you are gluten-free. It’s a favorite stop for coffee lovers seeking a cozy place to relax or work, and the locally roasted beans bring a fresh, distinctive flavor to every cup.",1,1,1
Global Cafe,Midtown,"1350 Concourse Ave Ste 157, Memphis, TN 38104",35.15185589,-90.01425365,"Global , Cultural","Casual , Community","Lunch, Dinner","Global Cafe, located in Crosstown Concourse, features a unique concept where immigrant and refugee chefs prepare authentic dishes from their home countries. The diverse menu highlights global flavors and changes regularly, offering clearly-marked gluten-free and vegan options alongside meat dishes. With its community-focused mission and welcoming environment, it’s a vibrant celebration of culinary diversity.",1,1,1
Good Fortune Co,Midtown,"361 S Main St, Memphis, TN 38103",35.136699,-90.05769308,"Asian , Ramen & Dumplings",Casual Dining,"Lunch, Dinner","Good Fortune Co. focuses on scratch-made ramen and dumplings, drawing inspiration from various Asian cuisines. They have a bright and lively atmosphere and are committed to providing options for various dietary needs, including clearly labeled vegan, vegetarian, and gluten-free dishes. The menu features a nearly even split of vegetarian and vegan options.",1,1,1
Grecian Gourmet Kitchen,Bartlett,"2965 N Germantown Pkwy #115, Memphis, TN 38133",35.20687127,-89.79348305,"Greek , Mediterranean",Casual Dining,"Lunch, Dinner","Grecian Gourmet Kitchen offers comforting, homemade Greek and Mediterranean dishes in a bright, casual setting. Menu favorites include spanakopita, gyros, and fresh Greek salads. The menu is very vegetarian-friendly, with several vegan and gluten-free options as well, making it a great spot for anyone looking to enjoy wholesome Mediterranean flavors with flexible choices.",1,1,1
Hustle and Dough Cafe and Bakery,Downtown Memphis,"477 S Main St, Memphis, TN 38103",35.13442777,-90.05910031,"Bakery , Café","Casual , Bakery","Breakfast, Lunch","Hustle and Dough is a charming bakery and café known for fresh-baked pastries, hearty breakfast dishes, and artisan coffee. Vegan and vegetarian options are plentiful, including plant-based pastries and savory breakfast bowls. They also offer some gluten-free options. Its welcoming atmosphere and locally sourced ingredients make it a favorite morning stop for both locals and visitors looking for quality and comfort.",1,1,1
Imagine Vegan Cafe,Midtown,"2158 Young Ave, Memphis, TN 38104",35.11974458,-89.99027035,"Vegan , Contemporary",Casual Dining,"Lunch, Dinner","Imagine Vegan Cafe offers a diverse menu of hearty and flavorful plant-based dishes made from scratch, including vegan comfort foods and healthy bowls. They cater to gluten-free and soy-free diets, making it a welcoming spot for all vegan diners.",1,1,1
India Palace,Midtown,"1720 Poplar Ave, Memphis, TN 38104",35.14319913,-90.0031398,"Indian , Vegan",Casual Dining,"Lunch, Dinner","India Palace serves traditional Indian vegan dishes such as vegetable curries, lentil dals, and rice specialties. The menu includes numerous gluten-free options and focuses on rich, aromatic spices and fresh ingredients.",1,1,1
Inspire Community Cafe,Midtown,"510 Tillman St #110, Memphis, TN 38112",35.14621684,-89.96071485,"Vegan , Contemporary",Casual Dining,"Snack, Lunch","Inspire Community Cafe is a welcoming vegan spot with a variety of healthy, flavorful bowls, wraps, and smoothies. Their menu is gluten-free and soy-free friendly, focusing on organic and plant-based ingredients for community wellness.",1,1,1
Last Vegan On Earth,Midtown,"Memphis, TN 38104",35.11972871,-89.99866031,"Vegan , Contemporary",Casual Dining,"Lunch, Dinner","Last Vegan On Earth serves innovative vegan cuisine with a focus on fresh, organic ingredients and creative flavors. Their menu is fully plant-based and offers many gluten-free and nut-free options, perfect for health-conscious diners.",1,1,1
LiveYaLife Juices,Midtown,"670 Germantown Parkway Suite 14, Cordova, TN 38018",35.1426734,-89.7929067,"Juice Bar , Vegan","Casual , Quick Service","Breakfast, Lunch","LiveYaLife Juices is a vibrant juice bar offering cold-pressed juices, smoothies, and vegan snacks made with organic and raw ingredients. They focus on healthful, allergy-friendly options including gluten-free and soy-free choices.",1,1,1
Loflin Yard,Downtown Memphis,"7 W Carolina Ave, Memphis, TN 38103",35.12816866,-90.06209121,"American , Brewpub","Casual , Taproom","Lunch, Dinner","Loflin Yard is a spacious taproom and brewpub featuring a variety of craft beers brewed on-site alongside a food menu of burgers, sandwiches, and shareable appetizers. Vegetarian and vegan options like salads and veggie burgers are available, making it a welcoming spot for both beer enthusiasts and those seeking casual, tasty food in a lively outdoor setting.",1,0,1
LuLu’s,Midtown,"3119 Poplar Ave, Memphis, TN 38111",35.13121796,-89.95797599,"Vegan , Contemporary",Casual Dining,"Lunch, Dinner","LuLu’s is a cozy vegan spot offering a menu of sandwiches, salads, and daily specials that emphasize fresh, local ingredients. Gluten-free and soy-free options are widely available, catering to diverse dietary needs with creative plant-based recipes.",1,1,1
Memphis Toast,North Memphis,"954 Jackson Ave, Memphis, TN 38107",35.15736965,-90.02666296,"Breakfast , Brunch",Casual Dining,"Breakfast, Brunch","Memphis Toast specializes in hearty breakfast and brunch offerings with a Southern twist, featuring items like loaded toast, omelets, and house-made pastries. The menu includes vegetarian and gluten-free choices, with fresh ingredients and generous portions making it a popular morning destination for locals craving comfort food with flair.",0,1,0
MemPops,Midtown,"1350 Concourse Ave Suite 133, Memphis, TN 38104",35.15192363,-90.01496257,"Dessert , Ice Cream","Casual , Quick Service","Snack, Dessert","MemPops is a charming ice cream shop featuring handcrafted popsicles made from fresh, natural ingredients. Vegan and dairy-free options are abundant, with seasonal fruit flavors and creative combinations perfect for cooling off on a hot Memphis day. Many of the options are naturally gluten-free. The colorful, casual setting is family-friendly and perfect for quick, refreshing treats.",1,1,1
Paradise Cafe,Downtown Memphis,"6150 Poplar Ave #120, Memphis, TN 38119",35.10301724,-89.85764534,"Vegan , Contemporary",Casual Dining,"Lunch, Dinner","Paradise Cafe serves a variety of vegan dishes inspired by global cuisines, including hearty salads, wraps, and smoothies. They prioritize organic and locally sourced ingredients, with many gluten-free and raw food choices for health-conscious diners.",1,1,1
Raw Girls,East Memphis,"Parking, Lot 5502 Poplar Ave, Memphis, TN 38117",35.10632582,-89.87867805,"Vegan , Raw",Casual Dining,"Lunch, Dinner","Raw Girls specializes in raw vegan cuisine, offering creative dishes made from fresh, uncooked ingredients that maximize nutrients and flavor. Their menu is fully raw, gluten-free, and soy-free, appealing to raw food enthusiasts and health-conscious diners.",1,1,1
Shroomlicious Meals,Midtown,"472 N Watkins St, Memphis, TN 38104",35.15139861,-90.01264406,"Vegan , Contemporary",Casual Dining,"Lunch, Dinner","Shroomlicious Meals features mushroom-forward vegan dishes, including hearty bowls, sandwiches, and sides. The menu is fully plant-based with gluten-free options, focusing on earthy flavors and nutritious ingredients.",1,1,1
Sizzler Cuisine of India,Midtown,"581 Old Hickory Blvd k, Jackson, TN 38305",35.66011059,-88.85030326,"Indian , Vegan",Casual Dining,"Lunch, Dinner","Sizzler Cuisine of India delivers authentic Indian flavors with a variety of vegan-friendly options, including rich curries, lentil dishes, and vegetable-based entrees. The menu also features many gluten-free and soy-free choices, blending traditional spices with healthful, inclusive dining.",1,1,1
Slider Inn,Midtown,"363 Mulberry St, Memphis, TN 38103",35.13620302,-90.05707385,"American , Bar & Grill",Casual Dining,"Lunch, Dinner","Slider Inn is a lively bar and grill known for its signature sliders, wings, and casual comfort food. The menu offers several vegetarian and gluten-free choices, catering to varied tastes. Slider Inn also offers vegan options which includes vegan versions of their wings. Its energetic setting with regular live music makes it a favorite hangout spot for groups and music enthusiasts.",1,1,0
Slider Inn,Downtown Memphis,"2117 Peabody Ave, Memphis, TN 38104",35.13166804,-89.99101318,"American , Bar & Grill",Casual Dining,"Lunch, Dinner","Slider Inn is a lively bar and grill known for its signature sliders, wings, and casual comfort food. The menu offers several vegetarian and gluten-free choices, catering to varied tastes. Slider Inn also offers vegan options which includes vegan versions of their wings. Its energetic setting with regular live music makes it a favorite hangout spot for groups and music enthusiasts.",1,1,0
Smooth Living,Midtown,"1263 Winchester Rd, Memphis, TN 38116",35.05377853,-90.0216133,"Vegan , Health-Focused","Casual , Quick Service","Breakfast, Snack","Smooth Living features plant-based smoothies, bowls, and snacks made from fresh, organic ingredients. Their menu caters to vegan, gluten-free, and soy-free diets, perfect for health-conscious and active lifestyles.",1,1,1
Staks Pancake Kitchen,East Memphis,"4615 Poplar Ave #102, Memphis, TN 38117",35.11589101,-89.90884164,"Breakfast , Brunch",Casual Dining,"Breakfast, Brunch","Staks Pancake Kitchen is a beloved breakfast spot specializing in pancakes, waffles, and Southern-style breakfast classics. The menu includes vegetarian options and some gluten-free choices. Its cozy atmosphere and generous portions make it a popular destination for morning meals and brunch with family or friends.",0,1,0
Stick ’Em,Midtown,"1788 Madison Ave, Memphis, TN 38104",35.13802328,-90.00159882,"Vegan , Contemporary",Casual Dining,"Lunch, Dinner","Stick ’Em offers creative vegan skewers and small plates with bold flavors and a variety of seasonal vegetables and plant-based proteins. The menu is gluten-free friendly and perfect for casual, shareable meals.",1,1,1
Sun of a Vegan,Midtown,"6075 Winchester Rd, Memphis, TN 38115",35.04821231,-89.86105772,"Vegan , Comfort",Casual Dining,"Lunch, Dinner","Sun of a Vegan offers a broad menu of vegan comfort foods like burgers, sandwiches, and sides, all made with wholesome ingredients. Many gluten-free options are available, ideal for casual, satisfying dining.",1,1,1
Sunrise Memphis,East Memphis,"5469 Poplar Ave, Memphis, TN 38119",35.10605152,-89.87966093,"American , Contemporary","Casual , Upscale","Breakfast, Brunch, Lunch","Sunrise Memphis serves Southern-inspired breakfast, brunch, and lunch featuring biscuits, breakfast sandwiches, omelets, breakfast bowls, salads, wraps, and sandwiches. Signature dishes include the King Biscuit with fried chicken and sausage gravy, the Dirty South with fried green tomatoes, and house-made specialties like pimento cheese and cinnamon rolls. Gluten-free diners can substitute Udi’s bread for biscuits or toast, while vegan options include the tofu scramble “Breakfast of Champions,” Queen’s Oatmeal, Vegan Banh Mi, and customizable dishes like avocado toast and hashbrowns.",1,1,1
Sunrise Memphis,Downtown,"670 Jefferson Ave, Memphis, TN 38105",35.14387733,-90.03816655,"American , Contemporary","Casual , Upscale","Breakfast, Brunch, Lunch","Sunrise Memphis serves Southern-inspired breakfast, brunch, and lunch featuring biscuits, breakfast sandwiches, omelets, breakfast bowls, salads, wraps, and sandwiches. Signature dishes include the King Biscuit with fried chicken and sausage gravy, the Dirty South with fried green tomatoes, and house-made specialties like pimento cheese and cinnamon rolls. Gluten-free diners can substitute Udi’s bread for biscuits or toast, while vegan options include the tofu scramble “Breakfast of Champions,” Queen’s Oatmeal, Vegan Banh Mi, and customizable dishes like avocado toast and hashbrowns.",1,1,1
Swanky’s Taco Shop,East Memphis,"4770 Poplar Ave #102, Memphis, TN 38117",35.115511,-89.90307787,"Mexican , Fast-Casual",Casual Dining,"Lunch, Dinner","Swanky’s Taco Shop offers a fun and casual Mexican dining experience with a menu of tacos, burritos, and other traditional dishes. Vegetarian, vegan, and gluten-free options are plentiful, including fresh salsas and house-made tortillas. The lively atmosphere and bold flavors make it a popular spot for quick, flavorful meals.",1,1,1
Tamboli's Pizza and Pasta,Midtown,"1761 Madison Ave, Memphis, TN 38104",35.1378568,-90.00268784,"Italian , Pizza & Pasta",Casual Dining,"Lunch, Dinner","Tamboli’s Pizza and Pasta serves vegan and gluten-free pizzas and pasta dishes featuring fresh, plant-based ingredients and classic Italian flavors. They cater to gluten-free diets with customizable options.",1,1,1
The Crazy Noodle,Midtown,"2015 Madison Ave, Memphis, TN 38104",35.1368347,-89.9942397,"Asian , Vegan",Casual Dining,"Lunch, Dinner","The Crazy Noodle offers a wide selection of vegan Asian-inspired dishes, including noodle bowls, stir-fries, and dumplings. Many dishes can be made gluten-free and soy-free on request, emphasizing fresh and bold flavors.",1,1,1
Trap Fusion,Cordova,"670 N Germantown Pkwy #14, Cordova, TN 38018",35.142776,-89.79294273,"Vegan , Southern Fusion, Soul Food",Casual Dining,"Lunch, Dinner","Trap Fusion blends Southern soul food with Cajun and Caribbean flavors, offering bold dishes like Jerk Chicken Alfredo, Caribbean Oxtails, Trap Wings, and Fish and Grits. Signature creations such as Gang Bang Skrimpz and Jerk Chicken Pasta highlight the fusion style, while classic comfort dishes anchor the menu. For dietary needs, Trap Fusion provides vegan, gluten-free, and dairy-free options, including a vegan sweet potato pie and BBQ jackfruit sandwich, making it a flavorful destination for all types of diners.",1,1,1
Trap Fusion,Whitehaven,"4637 Boeingshire Dr, Memphis, TN 38116",35.02209148,-89.9974832,"Vegan , Southern Fusion , Soul Food",Casual Dining,"Lunch, Dinner","Trap Fusion blends Southern soul food with Cajun and Caribbean flavors, offering bold dishes like Jerk Chicken Alfredo, Caribbean Oxtails, Trap Wings, and Fish and Grits. Signature creations such as Gang Bang Skrimpz and Jerk Chicken Pasta highlight the fusion style, while classic comfort dishes anchor the menu. For dietary needs, Trap Fusion provides vegan, gluten-free, and dairy-free options, including a vegan sweet potato pie and BBQ jackfruit sandwich, making it a flavorful destination for all types of diners.",1,1,1
Uncle Goyo’s Mexican Restaurant,Germantown,"1730 S Germantown Rd, Germantown, TN 38138",35.10172662,-89.80408124,"Mexican , Casual",Casual Dining,"Lunch, Dinner","Uncle Goyo’s Mexican Restaurant serves authentic Mexican dishes with bold flavors and fresh ingredients. The menu includes vegetarian and gluten-free options such as veggie tacos and gluten-free corn tortillas. Known for its warm hospitality and vibrant décor, it’s a great choice for casual Mexican dining in Memphis.",0,1,0
Plant Based Heat Memphis,Midtown,"669 S Highland St, Memphis, TN 38111",35.1134037,-89.9459775,"Vegan , Southern, Soul Food",Casual Dining,"Lunch, Dinner","Plant Based Heat in Memphis specializes in vegan comfort and Southern-inspired food, reimagining classic dishes with plant-based ingredients. Signature items include smoked Beyond Meat burgers, jackfruit barbecue sandwiches, cauliflower or oyster mushroom “vings,” and creamy vegan mac and cheese. The menu also features BBQ Jackfruit Nachos, a Pecan Meat Philly, and indulgent treats like vegan funnel cakes and strawberry cake. With extensive gluten-free options, including buns, flour, and a gluten-free chicken sandwich, Plant Based Heat offers inclusive, flavorful dining for vegan and gluten-free guests alike.",1,1,1
What the Health Food Truck,Cordova,"7040 Fischer Steel Rd, Cordova, TN 38018",35.14737317,-89.80438057,"Vegan , Street Food","Food Truck , Quick Service","Lunch, Snack","What the Health Food Truck brings delicious vegan street food to Memphis, featuring wraps, bowls, and snacks made from wholesome, organic ingredients. They accommodate gluten-free and soy-free diets, perfect for quick, healthy meals on the go.",1,1,1
Wild Beet Salad,Midtown,"8176 Old Dexter Rd, Memphis, TN 38016",35.17256592,-89.79014963,"Vegan , Salad Bar","Casual , Quick Service","Lunch, Dinner","Wild Beet Salad offers fresh, vibrant vegan salads and bowls packed with seasonal vegetables and house-made dressings. Their menu caters to gluten-free and raw diets, making it a popular spot for nutritious, plant-based meals.",1,1,1
Jacques Louise Gluten Free Bakery and Coffee Shop,Midtown,"2094 Trimble Pl, Memphis, TN 38104",35.13656302,-89.99157176,"Bakery , Coffeehouse","Casual , Bakery","Snack, Dessert","Jacques Louise Bakery in Memphis is a 100% gluten-free bakery and espresso bar, founded by Savannah Kenney to create inclusive meals for everyone. The welcoming, airy space is perfect for enjoying coffee, sweet treats, or savory bites while celebrating community. Their menu features a wide range of gluten-free options, including cakes, cookies, pies, breads, and dairy- or soy-free or vegan choices, all made with high-quality, locally sourced ingredients. Here, no one has to feel left out at the table.",1,1,1
Sweet Musings Bakery and Cafe,Cordova,"1890 N Germantown Pkwy suite 99, Cordova, TN 38016",35.17717082,-89.7922278,"Bakery , Café","Casual , Bakery","Snack, Dessert","Sweet Musings Bakery & Cafe is a charming spot for gluten-free, vegan, and dairy-free diners seeking delicious desserts. Their dedicated gluten-free kitchen crafts breads, cakes, pastries, and sweet treats that everyone can enjoy. Vegan and dairy-free options ensure no one misses out, and plant- and fruit-based colors add vibrant, natural flair. With a cozy, inviting atmosphere and friendly staff, it’s the perfect destination for dessert lovers looking for safe, flavorful, and inclusive indulgence.",1,1,1
Smallcakes,Collierville,"2150 W Poplar Ave Suite 107, Collierville, TN 38017",35.05337454,-89.73472636,"Bakery , Cupcakery","Casual , Bakery","Snack, Dessert","Smallcakes offers a delightful selection of cupcakes and desserts in a welcoming, vibrant setting. While they provide gluten-free, dairy-free, and nut-free options, it's important to note that their kitchen is not certified allergen-free, and cross-contamination may occur. Popular flavors include chocolate and vanilla, with seasonal specials like Birthday Cake and Lemon. Whether you're celebrating or simply indulging, Smallcakes provides a sweet escape with a variety of treats to satisfy diverse dietary preferences.",0,1,1